[{"OBJECT_NAME":"IRIS","OBJECT_ID":"2013-033A","EPOCH":"2026-03-09T13:26:21.239520","MEAN_MOTION":14.85645982,"ECCENTRICITY":0.00232612,"INCLINATION":97.9395,"RA_OF_ASC_NODE":268.1167,"ARG_OF_PERICENTER":285.8728,"MEAN_ANOMALY":73.9923,"EPHEMERIS_TYPE":0,"CLASSIFICATION_TYPE":"U","NORAD_CAT_ID":39197,"ELEMENT_SET_NO":999,"REV_AT_EPOCH":68558,"BSTAR":0.00024024039,"MEAN_MOTION_DOT":2.035e-5,"MEAN_MOTION_DDOT":0},{"OBJECT_NAME":"BPA 3 & SL-24 R\/B","OBJECT_ID":"2013-066AJ","EPOCH":"2026-03-09T22:24:02.903616","MEAN_MOTION":13.43221966,"ECCENTRICITY":0.06764463,"INCLINATION":97.669,"RA_OF_ASC_NODE":257.6114,"ARG_OF_PERICENTER":284.431,"MEAN_ANOMALY":68.2724,"EPHEMERIS_TYPE":0,"CLASSIFICATION_TYPE":"U","NORAD_CAT_ID":39448,"ELEMENT_SET_NO":999,"REV_AT_EPOCH":60256,"BSTAR":4.93628e-5,"MEAN_MOTION_DOT":7.3e-7,"MEAN_MOTION_DDOT":0}]
